[{"OBJECT_NAME":"STARLINK-3585","OBJECT_ID":"2022-022Z","EPOCH":"2026-03-09T06:10:42.518784","MEAN_MOTION":15.08841392,"ECCENTRICITY":0.00012407,"INCLINATION":53.2194,"RA_OF_ASC_NODE":10.9734,"ARG_OF_PERICENTER":96.9709,"MEAN_ANOMALY":263.1425,"EPHEMERIS_TYPE":0,"CLASSIFICATION_TYPE":"U","NORAD_CAT_ID":51875,"ELEMENT_SET_NO":999,"REV_AT_EPOCH":22305,"BSTAR":-0.00015749924,"MEAN_MOTION_DOT":-2.794e-5,"MEAN_MOTION_DDOT":0},{"OBJECT_NAME":"OBJECT A","OBJECT_ID":"2024-110A","EPOCH":"2026-03-09T23:09:02.134656","MEAN_MOTION":15.1192128,"ECCENTRICITY":0.0007919,"INCLINATION":97.5675,"RA_OF_ASC_NODE":161.4531,"ARG_OF_PERICENTER":228.7681,"MEAN_ANOMALY":131.2868,"EPHEMERIS_TYPE":0,"CLASSIFICATION_TYPE":"U","NORAD_CAT_ID":60012,"ELEMENT_SET_NO":999,"REV_AT_EPOCH":9691,"BSTAR":0.00051932581,"MEAN_MOTION_DOT":8.842e-5,"MEAN_MOTION_DDOT":0}]
